ONEWEB-0435             
1 51632U 22012L   24307.80677837  .00000558  00000+0  15615-2 0  9993
2 51632  87.8917 154.0263 0001935  78.2044 281.9300 13.10371391133147
ONEWEB-0436             
1 51633U 22012M   24307.74537602  .00000042  00000+0  74591-4 0  9990
2 51633  87.9070 123.6722 0001688  81.0445 279.0878 13.17645908137083
ONEWEB-0438             
1 51634U 22012N   24307.86653293  .00000430  00000+0  11952-2 0  9990
2 51634  87.8920 154.0154 0001376  87.5356 272.5929 13.10375181133199
ONEWEB-0439             
1 51635U 22012P   24307.86985652  .00000592  00000+0  16596-2 0  9996
2 51635  87.8920 154.0006 0001517  78.9508 281.1790 13.10374946133163
ONEWEB-0442             
1 51636U 22012Q   24307.73778775 -.00000006  00000+0 -47581-4 0  9991
2 51636  87.9075 123.7137 0000979 109.4160 250.7078 13.17645742137076
ONEWEB-0443             
1 51637U 22012R   24307.75721108  .00000015  00000+0  50276-5 0  9996
2 51637  87.9078 123.7206 0001757 100.4133 259.7197 13.17650808137129
ONEWEB-0444             
1 51638U 22012S   24307.55446015  .00000352  00000+0  97078-3 0  9999
2 51638  87.8918 154.0779 0001662  80.1858 279.9456 13.10376788131858
ONEWEB-0445             
1 51639U 22012T   24307.80509658  .00000676  00000+0  19012-2 0  9991
2 51639  87.8908 153.9934 0001231  79.0585 281.0681 13.10375858133173
